[{"OBJECT_NAME":"UHETSAT","OBJECT_ID":"2023-185E","EPOCH":"2026-03-09T22:39:26.455680","MEAN_MOTION":15.29797662,"ECCENTRICITY":0.00118435,"INCLINATION":97.3584,"RA_OF_ASC_NODE":137.3576,"ARG_OF_PERICENTER":307.7346,"MEAN_ANOMALY":52.2821,"EPHEMERIS_TYPE":0,"CLASSIFICATION_TYPE":"U","NORAD_CAT_ID":58466,"ELEMENT_SET_NO":999,"REV_AT_EPOCH":12611,"BSTAR":0.00030513019,"MEAN_MOTION_DOT":8.749e-5,"MEAN_MOTION_DDOT":0},{"OBJECT_NAME":"STARLINK-31244","OBJECT_ID":"2024-019D","EPOCH":"2026-03-09T13:29:07.131840","MEAN_MOTION":15.27599347,"ECCENTRICITY":0.00021016,"INCLINATION":43.0044,"RA_OF_ASC_NODE":249.5832,"ARG_OF_PERICENTER":278.4832,"MEAN_ANOMALY":81.5781,"EPHEMERIS_TYPE":0,"CLASSIFICATION_TYPE":"U","NORAD_CAT_ID":58856,"ELEMENT_SET_NO":999,"REV_AT_EPOCH":11906,"BSTAR":-6.9451264e-5,"MEAN_MOTION_DOT":-2.174e-5,"MEAN_MOTION_DDOT":0}]
